1 27424U 02022A   12029.00948013 -.00006284  00000-0 -13877-2 0  1974
2 27424 098.2223 331.4716 0001176 096.8317 263.3458 14.57060884517952